{
  "type": "FeatureCollection",
  "features": [
    {
      "type": "Feature",
      "properties": {
        "norad_id": 35073,
        "name": "COSMOS 2251 DEB",
        "group": "cosmos-2251-debris",
        "lat": -73.38216399252688,
        "lon": -113.66530027789393,
        "alt_km": 577.2188405526858,
        "timestamp": "2025-12-17T17:50:19.646582+00:00",
        "meta_object_name": "COSMOS 2251 DEB",
        "meta_object_id": "1993-036AJC",
        "meta_epoch": "2025-12-15T05:25:47.046144",
        "meta_mean_motion": 15.00831653,
        "meta_eccentricity": 0.00109074,
        "meta_inclination": 73.9997,
        "meta_ra_of_asc_node": 325.5063,
        "meta_arg_of_pericenter": 67.0121,
        "meta_mean_anomaly": 293.2216,
        "meta_ephemeris_type": 0,
        "meta_classification_type": "U",
        "meta_norad_cat_id": 35073,
        "meta_element_set_no": 999,
        "meta_rev_at_epoch": 67516,
        "meta_bstar": 0.001951072,
        "meta_mean_motion_dot": 0.00024882,
        "meta_mean_motion_ddot": 0,
        "tle_line1": "1 35073U 93036AJC 25349.22623896  .00024882  00000+0  19511-2 0  9992",
        "tle_line2": "2 35073  73.9997 325.5063 0010907  67.0121 293.2216 15.00831653675164"
      },
      "geometry": {
        "type": "Point",
        "coordinates": [
          -113.66530027789393,
          -73.38216399252688
        ]
      }
    },
    {
      "type": "Feature",
      "properties": {
        "norad_id": 35284,
        "name": "COSMOS 2251 DEB",
        "group": "cosmos-2251-debris",
        "lat": -41.03743317148432,
        "lon": -119.20324962110367,
        "alt_km": 758.5017838782715,
        "timestamp": "2025-12-17T17:50:19.646592+00:00",
        "meta_object_name": "COSMOS 2251 DEB",
        "meta_object_id": "1993-036AJN",
        "meta_epoch": "2025-12-16T00:22:37.828704",
        "meta_mean_motion": 14.38321694,
        "meta_eccentricity": 0.00169136,
        "meta_inclination": 74.0489,
        "meta_ra_of_asc_node": 258.3918,
        "meta_arg_of_pericenter": 334.2537,
        "meta_mean_anomaly": 41.1453,
        "meta_ephemeris_type": 0,
        "meta_classification_type": "U",
        "meta_norad_cat_id": 35284,
        "meta_element_set_no": 999,
        "meta_rev_at_epoch": 65573,
        "meta_bstar": 0.00015700211,
        "meta_mean_motion_dot": 4.52e-06,
        "meta_mean_motion_ddot": 0,
        "tle_line1": "1 35284U 93036AJN 25350.01571561  .00000452  00000+0  15700-3 0  9990",
        "tle_line2": "2 35284  74.0489 258.3918 0016913 334.2537  41.1453 14.38321694655734"
      },
      "geometry": {
        "type": "Point",
        "coordinates": [
          -119.20324962110367,
          -41.03743317148432
        ]
      }
    },
    {
      "type": "Feature",
      "properties": {
        "norad_id": 35287,
        "name": "COSMOS 2251 DEB",
        "group": "cosmos-2251-debris",
        "lat": 72.17806089281298,
        "lon": 23.977784347284228,
        "alt_km": 764.3831448221381,
        "timestamp": "2025-12-17T17:50:19.646603+00:00",
        "meta_object_name": "COSMOS 2251 DEB",
        "meta_object_id": "1993-036AJR",
        "meta_epoch": "2025-12-17T00:44:21.729120",
        "meta_mean_motion": 14.36380243,
        "meta_eccentricity": 0.00177628,
        "meta_inclination": 74.0304,
        "meta_ra_of_asc_node": 268.2508,
        "meta_arg_of_pericenter": 3.9403,
        "meta_mean_anomaly": 11.1296,
        "meta_ephemeris_type": 0,
        "meta_classification_type": "U",
        "meta_norad_cat_id": 35287,
        "meta_element_set_no": 999,
        "meta_rev_at_epoch": 86954,
        "meta_bstar": 0.00012333812,
        "meta_mean_motion_dot": 3.35e-06,
        "meta_mean_motion_ddot": 0,
        "tle_line1": "1 35287U 93036AJR 25351.03080705  .00000335  00000+0  12334-3 0  9991",
        "tle_line2": "2 35287  74.0304 268.2508 0017762   3.9403  11.1296 14.36380243869544"
      },
      "geometry": {
        "type": "Point",
        "coordinates": [
          23.977784347284228,
          72.17806089281298
        ]
      }
    },
    {
      "type": "Feature",
      "properties": {
        "norad_id": 35288,
        "name": "COSMOS 2251 DEB",
        "group": "cosmos-2251-debris",
        "lat": 49.28046385145404,
        "lon": 25.031639061987203,
        "alt_km": 698.2278869997954,
        "timestamp": "2025-12-17T17:50:19.646613+00:00",
        "meta_object_name": "COSMOS 2251 DEB",
        "meta_object_id": "1993-036AJS",
        "meta_epoch": "2025-12-15T08:15:30.303072",
        "meta_mean_motion": 14.65486547,
        "meta_eccentricity": 0.00393272,
        "meta_inclination": 73.9514,
        "meta_ra_of_asc_node": 10.134,
        "meta_arg_of_pericenter": 243.2869,
        "meta_mean_anomaly": 116.4271,
        "meta_ephemeris_type": 0,
        "meta_classification_type": "U",
        "meta_norad_cat_id": 35288,
        "meta_element_set_no": 999,
        "meta_rev_at_epoch": 87916,
        "meta_bstar": 0.00067125427,
        "meta_mean_motion_dot": 3.647e-05,
        "meta_mean_motion_ddot": 0,
        "tle_line1": "1 35288U 93036AJS 25349.34410073  .00003647  00000+0  67125-3 0  9995",
        "tle_line2": "2 35288  73.9514  10.1340 0039327 243.2869 116.4271 14.65486547879167"
      },
      "geometry": {
        "type": "Point",
        "coordinates": [
          25.031639061987203,
          49.28046385145404
        ]
      }
    },
    {
      "type": "Feature",
      "properties": {
        "norad_id": 35290,
        "name": "COSMOS 2251 DEB",
        "group": "cosmos-2251-debris",
        "lat": -57.00792029508973,
        "lon": -104.22647427214721,
        "alt_km": 633.5529587970932,
        "timestamp": "2025-12-17T17:50:19.646623+00:00",
        "meta_object_name": "COSMOS 2251 DEB",
        "meta_object_id": "1993-036AJU",
        "meta_epoch": "2025-12-15T14:28:49.986048",
        "meta_mean_motion": 14.80473727,
        "meta_eccentricity": 0.00019506,
        "meta_inclination": 74.0058,
        "meta_ra_of_asc_node": 53.7782,
        "meta_arg_of_pericenter": 195.4132,
        "meta_mean_anomaly": 164.6986,
        "meta_ephemeris_type": 0,
        "meta_classification_type": "U",
        "meta_norad_cat_id": 35290,
        "meta_element_set_no": 999,
        "meta_rev_at_epoch": 88000,
        "meta_bstar": 0.0012248752,
        "meta_mean_motion_dot": 9.351e-05,
        "meta_mean_motion_ddot": 0,
        "tle_line1": "1 35290U 93036AJU 25349.60335632  .00009351  00000+0  12249-2 0  9998",
        "tle_line2": "2 35290  74.0058  53.7782 0001950 195.4132 164.6986 14.80473727880006"
      },
      "geometry": {
        "type": "Point",
        "coordinates": [
          -104.22647427214721,
          -57.00792029508973
        ]
      }
    },
    {
      "type": "Feature",
      "properties": {
        "norad_id": 35432,
        "name": "COSMOS 2251 DEB",
        "group": "cosmos-2251-debris",
        "lat": 14.628293890469076,
        "lon": -179.295617807688,
        "alt_km": 503.006826731601,
        "timestamp": "2025-12-17T17:50:19.646633+00:00",
        "meta_object_name": "COSMOS 2251 DEB",
        "meta_object_id": "1993-036AKA",
        "meta_epoch": "2025-12-17T02:56:12.514848",
        "meta_mean_motion": 15.23730778,
        "meta_eccentricity": 0.00119728,
        "meta_inclination": 74.0182,
        "meta_ra_of_asc_node": 6.3043,
        "meta_arg_of_pericenter": 335.2801,
        "meta_mean_anomaly": 24.7823,
        "meta_ephemeris_type": 0,
        "meta_classification_type": "U",
        "meta_norad_cat_id": 35432,
        "meta_element_set_no": 999,
        "meta_rev_at_epoch": 87570,
        "meta_bstar": 0.0032704897,
        "meta_mean_motion_dot": 0.00079586,
        "meta_mean_motion_ddot": 0,
        "tle_line1": "1 35432U 93036AKA 25351.12236707  .00079586  00000+0  32705-2 0  9995",
        "tle_line2": "2 35432  74.0182   6.3043 0011972 335.2801  24.7823 15.23730778875705"
      },
      "geometry": {
        "type": "Point",
        "coordinates": [
          -179.295617807688,
          14.628293890469076
        ]
      }
    },
    {
      "type": "Feature",
      "properties": {
        "norad_id": 35433,
        "name": "COSMOS 2251 DEB",
        "group": "cosmos-2251-debris",
        "lat": -6.408239440836332,
        "lon": 151.12521678985948,
        "alt_km": 796.6991970650452,
        "timestamp": "2025-12-17T17:50:19.646644+00:00",
        "meta_object_name": "COSMOS 2251 DEB",
        "meta_object_id": "1993-036AKB",
        "meta_epoch": "2025-12-10T18:27:52.031808",
        "meta_mean_motion": 14.34742553,
        "meta_eccentricity": 0.00254013,
        "meta_inclination": 74.0339,
        "meta_ra_of_asc_node": 342.0559,
        "meta_arg_of_pericenter": 37.4572,
        "meta_mean_anomaly": 142.4072,
        "meta_ephemeris_type": 0,
        "meta_classification_type": "U",
        "meta_norad_cat_id": 35433,
        "meta_element_set_no": 999,
        "meta_rev_at_epoch": 86552,
        "meta_bstar": 0.00041847558,
        "meta_mean_motion_dot": 1.164e-05,
        "meta_mean_motion_ddot": 0,
        "tle_line1": "1 35433U 93036AKB 25344.76935222  .00001164  00000+0  41848-3 0  9992",
        "tle_line2": "2 35433  74.0339 342.0559 0025401  37.4572 142.4072 14.34742553865528"
      },
      "geometry": {
        "type": "Point",
        "coordinates": [
          151.12521678985948,
          -6.408239440836332
        ]
      }
    }
  ]
}